[{"OBJECT_NAME":"STARLINK-6034","OBJECT_ID":"2023-058H","EPOCH":"2026-03-09T21:38:58.308864","MEAN_MOTION":15.05652451,"ECCENTRICITY":0.00017412,"INCLINATION":97.6039,"RA_OF_ASC_NODE":71.5027,"ARG_OF_PERICENTER":85.5246,"MEAN_ANOMALY":274.618,"EPHEMERIS_TYPE":0,"CLASSIFICATION_TYPE":"U","NORAD_CAT_ID":56324,"ELEMENT_SET_NO":999,"REV_AT_EPOCH":15788,"BSTAR":1.406853e-5,"MEAN_MOTION_DOT":1.42e-6,"MEAN_MOTION_DDOT":0},{"OBJECT_NAME":"PEGASUS DEB","OBJECT_ID":"1994-029JY","EPOCH":"2026-03-09T23:11:54.295296","MEAN_MOTION":14.90653362,"ECCENTRICITY":0.0070631,"INCLINATION":82.0876,"RA_OF_ASC_NODE":46.3317,"ARG_OF_PERICENTER":279.2549,"MEAN_ANOMALY":134.3773,"EPHEMERIS_TYPE":0,"CLASSIFICATION_TYPE":"U","NORAD_CAT_ID":24197,"ELEMENT_SET_NO":999,"REV_AT_EPOCH":68196,"BSTAR":0.0004359638,"MEAN_MOTION_DOT":4.503e-5,"MEAN_MOTION_DDOT":0}]
